     3.05           N: GNSS NAV DATA    G: GPS              RINEX VERSION / TYPE
sbf2rin-15.6.1                          20221011 124558 UTC PGM / RUN BY / DATE 
GPSA   6.5193E-09  2.2352E-08 -5.9605E-08 -1.1921E-07       IONOSPHERIC CORR    
GPSB   8.6016E+04  9.8304E+04 -6.5536E+04 -5.2429E+05       IONOSPHERIC CORR    
GPUT -3.7252902985E-09-7.105427358E-15 589824 2056          TIME SYSTEM CORR    
    18                                                      LEAP SECONDS        
                                                            END OF HEADER       
G01 2019 06 06 22 00 00-3.462424501777E-05-9.436007530894E-12 0.000000000000E+00
     4.100000000000E+01-1.273437500000E+02 4.150530029093E-09 2.600635796634E+00
    -6.720423698425E-06 8.921553497203E-03 6.552785634995E-06 5.153658721924E+03
     4.248000000000E+05-1.285225152969E-07-3.105805414428E+00-1.434236764908E-07
     9.761313861903E-01 2.615312500000E+02 7.112214493196E-01-7.808182384995E-09
    -1.592923494515E-10 1.000000000000E+00 2.056000000000E+03 0.000000000000E+00
     2.000000000000E+00 0.000000000000E+00 5.587935447693E-09 4.100000000000E+01
     4.176180000000E+05 4.000000000000E+00
G01 2019 06 07 00 00 00-3.469269722700E-05-9.436007530894E-12 0.000000000000E+00
     5.100000000000E+01-1.248437500000E+02 4.183031382905E-09-2.632401611510E+00
    -6.632879376411E-06 8.921077591367E-03 6.230548024178E-06 5.153659620285E+03
     4.320000000000E+05 9.313225746155E-08-3.105862471159E+00-2.160668373108E-07
     9.761301953750E-01 2.672187500000E+02 7.112606730791E-01-7.903900657759E-09
    -4.571618997710E-11 1.000000000000E+00 2.056000000000E+03 0.000000000000E+00
     2.000000000000E+00 0.000000000000E+00 5.587935447693E-09 5.100000000000E+01
     4.248180000000E+05 4.000000000000E+00
G02 2019 06 06 22 00 00-2.312315627933E-04-8.981260180008E-12 0.000000000000E+00
     6.600000000000E+01-1.488750000000E+02 4.714482091388E-09 2.879261055706E+00
    -7.480382919312E-06 1.889210427180E-02 4.511326551437E-06 5.153727025986E+03
     4.248000000000E+05 2.533197402954E-07 3.108457728793E+00-1.937150955200E-07
     9.552165847649E-01 2.853437500000E+02-1.737103907156E+00-8.016048186297E-09
    -2.964409193827E-10 1.000000000000E+00 2.056000000000E+03 0.000000000000E+00
     2.000000000000E+00 0.000000000000E+00-2.048909664154E-08 6.600000000000E+01
     4.240260000000E+05 4.000000000000E+00